{
  "norad_id": 66903,
  "name": "STARLINK-36077",
  "history": [
    {
      "epoch": "2026-03-28T21:16:57.564768Z",
      "apogee_km": 476.049436571815,
      "perigee_km": 474.44245533864705,
      "latitude_deg": 1.87655109091211e-05,
      "longitude_deg": 149.43427719998576,
      "height_km": 476.09231123289305,
      "semi_major_axis_km": 6853.382945955231,
      "eccentricity": 0.00011724,
      "inclination_deg": 53.1598,
      "raan_deg": 294.9749,
      "arg_perigee_deg": 86.3023,
      "mean_anomaly_deg": 273.8112,
      "mean_motion_rev_day": 15.30189659
    },
    {
      "epoch": "2026-03-28T22:51:00.764352Z",
      "apogee_km": 476.0576776704811,
      "perigee_km": 474.4279439514703,
      "latitude_deg": -5.309969396946932e-05,
      "longitude_deg": 125.55241481691077,
      "height_km": 476.08808304388623,
      "semi_major_axis_km": 6853.379810810976,
      "eccentricity": 0.0001189,
      "inclination_deg": 53.1596,
      "raan_deg": 294.6708,
      "arg_perigee_deg": 86.2793,
      "mean_anomaly_deg": 273.8343,
      "mean_motion_rev_day": 15.30190709
    },
    {
      "epoch": "2026-03-29T22:21:48.718368Z",
      "apogee_km": 475.95972257467383,
      "perigee_km": 474.4821386048379,
      "latitude_deg": 6.392520363634301e-05,
      "longitude_deg": 127.33543630107792,
      "height_km": 476.1346689706742,
      "semi_major_axis_km": 6853.357930589756,
      "eccentricity": 0.0001078,
      "inclination_deg": 53.1585,
      "raan_deg": 290.1192,
      "arg_perigee_deg": 91.2079,
      "mean_anomaly_deg": 268.9046,
      "mean_motion_rev_day": 15.30198037
    },
    {
      "epoch": "2026-03-30T06:12:04.868352Z",
      "apogee_km": 476.26393145769725,
      "perigee_km": 474.07498537487845,
      "latitude_deg": -2.295692767613167e-05,
      "longitude_deg": 7.927292493756097,
      "height_km": 475.93203901340826,
      "semi_major_axis_km": 6853.306458416288,
      "eccentricity": 0.0001597,
      "inclination_deg": 53.1591,
      "raan_deg": 288.6003,
      "arg_perigee_deg": 82.9162,
      "mean_anomaly_deg": 277.202,
      "mean_motion_rev_day": 15.30215276
    },
    {
      "epoch": "2026-03-30T21:52:36.848640Z",
      "apogee_km": 475.95232930807015,
      "perigee_km": 474.43911344318985,
      "latitude_deg": 6.0907401441488355e-06,
      "longitude_deg": 129.11709172494554,
      "height_km": 476.0449415165688,
      "semi_major_axis_km": 6853.332721375629,
      "eccentricity": 0.0001104,
      "inclination_deg": 53.1576,
      "raan_deg": 285.5671,
      "arg_perigee_deg": 86.2998,
      "mean_anomaly_deg": 273.8129,
      "mean_motion_rev_day": 15.3020648
    },
    {
      "epoch": "2026-03-30T21:52:36.849504Z",
      "apogee_km": 475.95212370808804,
      "perigee_km": 474.43931904317105,
      "latitude_deg": 8.852867080022797e-06,
      "longitude_deg": 129.1170901731668,
      "height_km": 476.0449547849171,
      "semi_major_axis_km": 6853.332721375629,
      "eccentricity": 0.00011037,
      "inclination_deg": 53.1576,
      "raan_deg": 285.5671,
      "arg_perigee_deg": 86.2998,
      "mean_anomaly_deg": 273.8129,
      "mean_motion_rev_day": 15.3020648
    },
    {
      "epoch": "2026-04-01T19:20:09.481056Z",
      "apogee_km": 476.4451673082658,
      "perigee_km": 473.8710696617636,
      "latitude_deg": 1.2057564649445647e-05,
      "longitude_deg": 156.5656928276447,
      "height_km": 476.08494237237556,
      "semi_major_axis_km": 6853.295118485014,
      "eccentricity": 0.0001878,
      "inclination_deg": 53.1576,
      "raan_deg": 276.7686,
      "arg_perigee_deg": 91.3294,
      "mean_anomaly_deg": 268.7922,
      "mean_motion_rev_day": 15.30219074
    },
    {
      "epoch": "2026-04-02T18:50:57.033312Z",
      "apogee_km": 475.6036416985353,
      "perigee_km": 474.7575311093178,
      "latitude_deg": 6.432926047218317e-05,
      "longitude_deg": 158.3501449865392,
      "height_km": 475.8710110551594,
      "semi_major_axis_km": 6853.317586403926,
      "eccentricity": 6.173e-05,
      "inclination_deg": 53.1565,
      "raan_deg": 272.2168,
      "arg_perigee_deg": 60.5126,
      "mean_anomaly_deg": 299.5937,
      "mean_motion_rev_day": 15.30211549
    },
    {
      "epoch": "2026-04-03T18:21:45.395136Z",
      "apogee_km": 475.9468903446241,
      "perigee_km": 474.69270775039877,
      "latitude_deg": -1.2239575033103283e-05,
      "longitude_deg": 160.13521801061754,
      "height_km": 476.039802907564,
      "semi_major_axis_km": 6853.456799047512,
      "eccentricity": 9.15e-05,
      "inclination_deg": 53.1579,
      "raan_deg": 267.6691,
      "arg_perigee_deg": 73.4751,
      "mean_anomaly_deg": 286.635,
      "mean_motion_rev_day": 15.30164925
    },
    {
      "epoch": "2026-04-04T16:18:30.483936Z",
      "apogee_km": 475.801902307855,
      "perigee_km": 474.59297411295574,
      "latitude_deg": 3.276876060292669e-05,
      "longitude_deg": -174.20490348062003,
      "height_km": 475.9246827949611,
      "semi_major_axis_km": 6853.334438210405,
      "eccentricity": 8.82e-05,
      "inclination_deg": 53.1591,
      "raan_deg": 263.4181,
      "arg_perigee_deg": 73.5369,
      "mean_anomaly_deg": 286.5729,
      "mean_motion_rev_day": 15.30205905
    },
    {
      "epoch": "2026-04-05T11:07:08.720832Z",
      "apogee_km": 475.83739788875573,
      "perigee_km": 474.4300102169718,
      "latitude_deg": 1.5909427394092658e-05,
      "longitude_deg": -100.77386234523978,
      "height_km": 475.7049347199292,
      "semi_major_axis_km": 6853.270704052864,
      "eccentricity": 0.00010268,
      "inclination_deg": 53.1594,
      "raan_deg": 259.781,
      "arg_perigee_deg": 62.284,
      "mean_anomaly_deg": 297.8265,
      "mean_motion_rev_day": 15.30227251
    },
    {
      "epoch": "2026-04-05T20:31:27.796512Z",
      "apogee_km": 475.9604834264228,
      "perigee_km": 474.4186220185911,
      "latitude_deg": 7.800093363624451e-05,
      "longitude_deg": 115.93833931918473,
      "height_km": 475.769542795855,
      "semi_major_axis_km": 6853.326552722507,
      "eccentricity": 0.00011249,
      "inclination_deg": 53.1589,
      "raan_deg": 257.9589,
      "arg_perigee_deg": 65.6145,
      "mean_anomaly_deg": 294.4974,
      "mean_motion_rev_day": 15.30208546
    },
    {
      "epoch": "2026-04-07T19:33:03.561120Z",
      "apogee_km": 475.83878580898454,
      "perigee_km": 474.5846229960798,
      "latitude_deg": 2.214398075514598e-05,
      "longitude_deg": 119.50585948316959,
      "height_km": 475.8882845634526,
      "semi_major_axis_km": 6853.348704402532,
      "eccentricity": 9.15e-05,
      "inclination_deg": 53.1606,
      "raan_deg": 248.8568,
      "arg_perigee_deg": 69.2551,
      "mean_anomaly_deg": 290.8548,
      "mean_motion_rev_day": 15.30201127
    },
    {
      "epoch": "2026-04-08T15:55:45.256800Z",
      "apogee_km": 476.11529829308165,
      "perigee_km": 474.24845423118677,
      "latitude_deg": 3.0399346639044466e-05,
      "longitude_deg": 169.05272610004454,
      "height_km": 475.8665680606568,
      "semi_major_axis_km": 6853.318876262134,
      "eccentricity": 0.0001362,
      "inclination_deg": 53.1611,
      "raan_deg": 244.9143,
      "arg_perigee_deg": 76.7823,
      "mean_anomaly_deg": 283.333,
      "mean_motion_rev_day": 15.30211117
    },
    {
      "epoch": "2026-04-09T02:54:07.653024Z",
      "apogee_km": 476.072159891276,
      "perigee_km": 474.37293792472065,
      "latitude_deg": 1.80766128387497e-05,
      "longitude_deg": 1.882657438828236,
      "height_km": 476.1319313949281,
      "semi_major_axis_km": 6853.359548907998,
      "eccentricity": 0.00012397,
      "inclination_deg": 53.1605,
      "raan_deg": 242.7882,
      "arg_perigee_deg": 90.7564,
      "mean_anomaly_deg": 269.3579,
      "mean_motion_rev_day": 15.30197495
    },
    {
      "epoch": "2026-04-10T08:41:08.303424Z",
      "apogee_km": 476.1896526361452,
      "perigee_km": 474.04458409709787,
      "latitude_deg": -4.978647447172227e-05,
      "longitude_deg": -91.85467199785701,
      "height_km": 475.8394989438361,
      "semi_major_axis_km": 6853.254118366622,
      "eccentricity": 0.0001565,
      "inclination_deg": 53.1607,
      "raan_deg": 237.0268,
      "arg_perigee_deg": 80.587,
      "mean_anomaly_deg": 279.5307,
      "mean_motion_rev_day": 15.30232806
    },
    {
      "epoch": "2026-04-11T17:36:17.172576Z",
      "apogee_km": 476.2809614569178,
      "perigee_km": 474.1646439498436,
      "latitude_deg": -3.0086249477649733e-05,
      "longitude_deg": 126.6333445707374,
      "height_km": 476.06477272224964,
      "semi_major_axis_km": 6853.35980270338,
      "eccentricity": 0.0001544,
      "inclination_deg": 53.1588,
      "raan_deg": 230.6537,
      "arg_perigee_deg": 86.9879,
      "mean_anomaly_deg": 273.1298,
      "mean_motion_rev_day": 15.3019741
    },
    {
      "epoch": "2026-04-13T07:13:32.315808Z",
      "apogee_km": 476.74979896493005,
      "perigee_km": 473.55301405482896,
      "latitude_deg": -1.8871672291172737e-05,
      "longitude_deg": -86.50577898091467,
      "height_km": 475.72168708488044,
      "semi_major_axis_km": 6853.288406509879,
      "eccentricity": 0.00023323,
      "inclination_deg": 53.156,
      "raan_deg": 223.3727,
      "arg_perigee_deg": 78.2345,
      "mean_anomaly_deg": 281.8917,
      "mean_motion_rev_day": 15.30221322
    },
    {
      "epoch": "2026-04-14T16:08:39.192576Z",
      "apogee_km": 475.9112710165009,
      "perigee_km": 474.5488216476897,
      "latitude_deg": -4.2310862292493193e-05,
      "longitude_deg": 131.99173386843077,
      "height_km": 476.10493128766564,
      "semi_major_axis_km": 6853.367046332095,
      "eccentricity": 9.94e-05,
      "inclination_deg": 53.1582,
      "raan_deg": 217.0008,
      "arg_perigee_deg": 88.0336,
      "mean_anomaly_deg": 272.0778,
      "mean_motion_rev_day": 15.30194984
    }
  ]
}